FENGYUN 3C              
1 39260U 13052A   22326.27570256  .00000087  00000+0  64773-4 0  9995
2 39260  98.4433 346.3158 0011140 173.9642 186.1678 14.15960970474253
METEOR-M 2              
1 40069U 14037A   22326.29095924  .00000015  00000+0  26065-4 0  9997
2 40069  98.4282 336.8666 0004916 215.1153 144.9709 14.20727071434275
HIMAWARI-8              
1 40267U 14060A   22325.85882817 -.00000252  00000+0  00000+0 0  9999
2 40267   0.0171 112.5129 0000923 132.4844 265.6503  1.00270932 29698
FENGYUN 2G              
1 40367U 14090A   22325.85107924 -.00000278  00000+0  00000+0 0  9990
2 40367   2.3263  87.8194 0001732 219.5429 159.3820  1.00273995 28936
METEOSAT-11 (MSG-4)     
1 40732U 15034A   22325.84170816  .00000019  00000+0  00000+0 0  9996
2 40732   0.4908 347.5361 0000874 139.6962 236.7228  1.00268135 26951
ELEKTRO-L 2             
1 41105U 15074A   22325.97271549 -.00000091  00000+0  00000+0 0  9995
2 41105   3.3807  86.2502 0002889 142.1040 168.3315  1.00271175 25442
HIMAWARI-9              
1 41836U 16064A   22325.85882817 -.00000251  00000+0  00000+0 0  9997
2 41836   0.0252 190.5576 0000915  50.4852 269.7456  1.00270506 22122
GOES 16                 
1 41866U 16071A   22325.24821177 -.00000225  00000+0  00000+0 0  9994
2 41866   0.0458 264.9534 0000641  18.8509 150.6224  1.00271884 22037
FENGYUN 4A              
1 41882U 16077A   22326.05327060 -.00000305  00000+0  00000+0 0  9999
2 41882   0.0909 292.7503 0005260 104.1576 147.9164  1.00264357 21911
CYGFM05                 
1 41884U 16078A   22325.36289151  .00003376  00000+0  16649-3 0  9993
2 41884  34.9566 303.9685 0013485  56.5018 303.6981 15.17362149328620
CYGFM04                 
1 41885U 16078B   22325.62200957  .00003671  00000+0  17812-3 0  9991
2 41885  34.9496 290.6888 0011914  78.6860 281.5191 15.17915225328711
CYGFM02                 
1 41886U 16078C   22325.93769630  .00003476  00000+0  16851-3 0  9999
2 41886  34.9585 290.9779 0012544  74.6376 285.5722 15.17957349328842
CYGFM01                 
1 41887U 16078D   22326.24054539  .00003114  00000+0  15455-3 0  9998
2 41887  34.9533 301.1418 0013906  63.9210 296.2932 15.17165239328821
CYGFM08                 
1 41888U 16078E   22325.91229590  .00003570  00000+0  17450-3 0  9996
2 41888  34.9503 295.0846 0013057  74.8051 285.4105 15.17657208328796
CYGFM06                 
1 41889U 16078F   22325.91639957  .00003371  00000+0  16344-3 0  9999
2 41889  34.9583 289.7614 0011416  74.5758 285.6214 15.17973974328789
CYGFM07                 
1 41890U 16078G   22326.23671689  .00002990  00000+0  14544-3 0  9991
2 41890  34.9521 286.6277 0011324  82.6629 277.5370 15.17903034328962
CYGFM03                 
1 41891U 16078H   22325.24872272  .00003571  00000+0  17343-3 0  9999
2 41891  34.9553 293.3065 0010916  71.1187 289.0708 15.17901249328651
FENGYUN 3D              
1 43010U 17072A   22326.20545316  .00000081  00000+0  60243-4 0  9993
2 43010  98.8337 270.1343 0001551 142.4014 217.7273 14.19112711260146
NOAA 20                 
1 43013U 17073A   22326.17897026  .00000041  00000+0  40197-4 0  9993
2 43013  98.7314 262.3472 0000958  53.8602 306.2662 14.19560864259608
GOES 17                 
1 43226U 18022A   22325.67082072  .00000122  00000+0  00000+0 0  9999
2 43226   0.0113 297.6285 0000264 259.7156 327.4508  1.00270418 17358
FENGYUN 2H              
1 43491U 18050A   22326.07260811 -.00000101  00000+0  00000+0 0  9996
2 43491   1.5441  94.1777 0003310  72.5676 359.4360  1.00269021 16449
METOP-C                 
1 43689U 18087A   22326.11003972  .00000095  00000+0  63662-4 0  9992
2 43689  98.7147  23.6593 0002246 312.8794  47.2195 14.21483179209700
GEO-KOMPSAT-2A          
1 43823U 18100A   22325.40326997 -.00000321  00000+0  00000+0 0  9999
2 43823   0.0256  80.6939 0000985  47.0400 206.0870  1.00269178 14548
METEOR-M2 2             
1 44387U 19038A   22326.20768119  .00000047  00000+0  39915-4 0  9997
2 44387  98.7453 285.8795 0001616 136.9119 223.2188 14.23731650175856
FENGYUN 3E              
1 49008U 21062A   22326.23627091  .00000017  00000+0  28682-4 0  9994
2 49008  98.7175 325.7513 0000774 236.2332 123.8770 14.19746539 71707
GOES 18                 
1 51850U 22021A   22325.15078226  .00000119  00000+0  00000+0 0  9990
2 51850   0.0032  42.1842 0001901 196.8297  98.5081  1.00272838  2701
JPSS-2                  
1 54234U 22150A   22326.25892862 -.00003779  00000+0 -16207-2 0  9990
2 54234  98.6952 262.5248 0023285 205.9009 154.0830 14.24079085  1689
PROGRESS-MS 21          
1 54155U 22140A   22325.70530266  .00009606  00000+0  17523-3 0  9993
2 54155  51.6438 276.2646 0007024  98.7292 323.8398 15.50125202369616
STARLINK-5290           
1 54157U 22141A   22326.25002315 -.01188837  00000+0 -19175-1 0  9996
2 54157  53.2175  19.6275 0001583  35.0387  19.8987 15.55300396  3990
STARLINK-5297           
1 54158U 22141B   22325.91667824 -.01188818  00000+0 -18648-1 0  9994
2 54158  53.2174  21.2441 0001472  33.8186 308.7449 15.56048879  1306
STARLINK-5294           
1 54159U 22141C   22326.25002315 -.01188907  00000+0 -19230-1 0  9998
2 54159  53.2175  19.6336 0001390  43.1967   8.6918 15.55226748  3998
STARLINK-5233           
1 54160U 22141D   22326.25002315 -.00075509  00000+0 -53662-3 0  9991
2 54160  53.2194  19.1236 0003018  15.7259 292.8706 15.73270716  3999
STARLINK-5269           
1 54161U 22141E   22325.91667824 -.01189744  00000+0 -18617-1 0  9993
2 54161  53.2174  21.2383 0001269  43.5638 301.8459 15.56118332  1306
STARLINK-5273           
1 54162U 22141F   22325.91667824 -.01210179  00000+0 -18907-1 0  9993
2 54162  53.2176  21.2328 0001478  36.4321 311.9869 15.56209988  1305
STARLINK-5161           
1 54163U 22141G   22326.25002315 -.00070186  00000+0 -49797-3 0  9994
2 54163  53.2188  19.1750 0003497   9.1626 274.9532 15.73276844  3998
STARLINK-5278           
1 54164U 22141H   22325.91667824  .00012800  00000+0  95360-4 0  9994
2 54164  53.2190  20.8250 0003251  10.6574 183.8678 15.73229696  1308
STARLINK-5279           
1 54165U 22141J   22326.25002315 -.01188800  00000+0 -19124-1 0  9999
2 54165  53.2175  19.6214 0001518  37.8546  20.0628 15.55371703  3993
STARLINK-5280           
1 54166U 22141K   22325.91667824  .00017916  00000+0  13166-3 0  9992
2 54166  53.2186  20.8202 0002927   9.7697 185.9984 15.73223720  1301
STARLINK-5243           
1 54167U 22141L   22325.91667824 -.01166207  00000+0 -18124-1 0  9991
2 54167  53.2190  21.2332 0001110  91.3127 259.9655 15.56243959  1308
STARLINK-5245           
1 54168U 22141M   22326.25002315 -.00036292  00000+0 -25464-3 0  9994
2 54168  53.2186  19.1700 0003113   9.9034 276.0457 15.73249874  3994
STARLINK-5282           
1 54169U 22141N   22326.25002315  .00026656  00000+0  19353-3 0  9996
2 54169  53.2185  19.1757 0003269  11.7873 271.1829 15.73221793  3999
STARLINK-5155           
1 54170U 22141P   22326.25002315 -.00068313  00000+0 -48452-3 0  9998
2 54170  53.2181  19.1709 0003285  14.0761 272.4266 15.73275038  3994
STARLINK-5229           
1 54171U 22141Q   22326.25002315  .00030805  00000+0  22295-3 0  9999
2 54171  53.2192  19.1775 0003048   6.9488 275.4235 15.73212587  3992
STARLINK-5117           
1 54172U 22141R   22325.91667824 -.00045129  00000+0 -31812-3 0  9996
2 54172  53.2184  20.8133 0003508   5.4495 193.2523 15.73242728  1304
STARLINK-5242           
1 54173U 22141S   22325.91667824 -.00064843  00000+0 -45997-3 0  9990
2 54173  53.2186  20.8195 0003184  13.3410 182.9944 15.73251516  3949
STARLINK-5248           
1 54174U 22141T   22326.25002315 -.00081004  00000+0 -57654-3 0  9998
2 54174  53.2169  18.3736 0002292  25.9830 286.1108 15.73267410  4005
STARLINK-5256           
1 54175U 22141U   22325.91667824  .00040373  00000+0  29054-3 0  9998
2 54175  53.2189  20.8161 0003418   7.4419 190.6948 15.73207764  3946
STARLINK-5154           
1 54176U 22141V   22326.25002315 -.00035017  00000+0 -24545-3 0  9996
2 54176  53.2179  19.1586 0003446   9.8067 280.3142 15.73252218  3996
STARLINK-5186           
1 54177U 22141W   22326.25002315 -.00079177  00000+0 -56325-3 0  9993
2 54177  53.2193  19.1660 0003250  14.4207 273.9476 15.73265235  3998
STARLINK-5164           
1 54178U 22141X   22326.25002315 -.00089047  00000+0 -63489-3 0  9990
2 54178  53.2180  19.1572 0003301   8.5572 282.1797 15.73259920  3995
STARLINK-5122           
1 54179U 22141Y   22325.91667824  .00048175  00000+0  34588-3 0  9998
2 54179  53.2187  20.8124 0002960   6.7385 193.1250 15.73184750  4171
STARLINK-5228           
1 54180U 22141Z   22326.25002315 -.00088183  00000+0 -62868-3 0  9993
2 54180  53.2180  19.1510 0003050  10.2144 283.4714 15.73259303  4221
STARLINK-5227           
1 54181U 22141AA  22326.25002315 -.00084704  00000+0 -60348-3 0  9990
2 54181  53.2183  19.1571 0003390  10.6276 280.7006 15.73256355  4227
STARLINK-5231           
1 54182U 22141AB  22326.25002315 -.00091635  00000+0 -65317-3 0  9993
2 54182  53.2171  19.1445 0003295  12.6835 283.3703 15.73277694  4224
STARLINK-5239           
1 54183U 22141AC  22325.91667824  .00045025  00000+0  32343-3 0  9991
2 54183  53.2191  20.8044 0003228  11.0114 193.0734 15.73201650  1306
STARLINK-5162           
1 54184U 22141AD  22326.25002315 -.00056732  00000+0 -40165-3 0  9998
2 54184  53.2168  19.1469 0003199   9.4053 284.9397 15.73242370  4226
STARLINK-5235           
1 54185U 22141AE  22326.25002315 -.00074216  00000+0 -52713-3 0  9998
2 54185  53.2184  19.1585 0003326  10.3754 282.1134 15.73275094  4223
STARLINK-5194           
1 54186U 22141AF  22325.91667824  .00055993  00000+0  40105-3 0  9994
2 54186  53.2175  20.7916 0003220  11.3049 196.8243 15.73176359  4171
STARLINK-5240           
1 54187U 22141AG  22326.25002315 -.00097588  00000+0 -69698-3 0  9997
2 54187  53.2188  19.1567 0002972  14.5196 277.4098 15.73259724  4229
